OBJECT_NAME,OBJECT_ID,EPOCH,MEAN_MOTION,ECCENTRICITY,INCLINATION,RA_OF_ASC_NODE,ARG_OF_PERICENTER,MEAN_ANOMALY,EPHEMERIS_TYPE,CLASSIFICATION_TYPE,NORAD_CAT_ID,ELEMENT_SET_NO,REV_AT_EPOCH,BSTAR,MEAN_MOTION_DOT,MEAN_MOTION_DDOT
OSCAR 7 (AO-7),1974-089B,2026-06-12T06:20:25.627200,12.53697997,.00125194,101.9901,176.4594,139.2870,231.9396,0,U,7530,999,35990,.11075317E-3,-.29E-6,0
PHASE 3B (AO-10),1983-058B,2026-06-07T04:08:14.383680,2.05872980,.60142661,25.9048,221.2242,112.9115,319.2048,0,U,14129,999,29528,0,-.194E-5,0
UOSAT 2 (UO-11),1984-021B,2026-06-12T20:36:18.408096,14.90773494,.0007224,97.8056,129.4816,187.2245,172.8870,0,U,14781,999,25648,.13794E-3,.13E-4,0
LUSAT (LO-19),1990-005G,2026-06-12T18:52:36.377760,14.34121964,.0010888,98.8851,185.4708,214.6360,145.4115,0,U,20442,999,90176,.59009E-4,.118E-5,0
EYESAT A (AO-27),1993-061C,2026-06-12T04:12:10.906272,14.30940991,.00094701,98.6880,230.5904,112.6662,247.5523,0,U,22825,999,70628,.50602172E-4,.88E-6,0
ITAMSAT (IO-26),1993-061D,2026-06-12T03:44:41.314272,14.31367730,.00100766,98.6828,230.4881,98.0935,262.1392,0,U,22826,999,70659,.50545474E-4,.89E-6,0
RADIO ROSTO (RS15),1994-085A,2026-06-12T18:29:06.628704,11.27583565,.015581,64.8187,310.3597,4.6935,355.5410,0,U,23439,999,29540,-.47671E-3,-.59E-6,0
JAS-2 (FO-29),1996-046B,2026-06-12T19:13:35.027040,13.53274026,.0350852,98.5243,13.2741,107.7840,256.1904,0,U,24278,999,47257,.52055E-4,.19E-6,0
TECHSAT 1B (GO-32),1998-043D,2026-06-12T20:23:43.499328,14.24427638,.000082,99.0066,156.4990,172.7778,187.3412,0,U,25397,999,45071,.44194E-4,.56E-6,0
ISS (ZARYA),1998-067A,2026-06-12T19:16:30.351648,15.49196054,.00049,51.6335,321.7912,178.5917,181.5086,0,U,25544,999,57107,.16106E-3,.8495E-4,0
PCSAT (NO-44),2001-043C,2026-06-11T15:23:47.847264,14.31954152,.00060996,67.0509,258.6152,264.4327,95.6080,0,U,26931,999,28965,.57658929E-4,.72E-6,0
SAUDISAT 1C (SO-50),2002-058C,2026-06-12T07:12:13.344480,14.83036938,.00753718,64.5507,144.1057,263.3766,95.8757,0,U,27607,999,26373,.13385224E-3,.989E-5,0
CUTE-1 (CO-55),2003-031E,2026-06-11T23:30:12.657888,14.24332546,.0009162,98.6735,171.6035,193.3973,166.6964,0,U,27844,999,19093,.1241768E-3,.243E-5,0
CUBESAT XI-IV (CO-57),2003-031J,2026-06-11T23:09:49.759200,14.23618048,.00087106,98.6768,171.3067,213.1482,146.9152,0,U,27848,999,19063,.11102404E-3,.209E-5,0
MOZHAETS 4 (RS22),2003-042A,2026-06-12T20:59:36.728160,14.73459704,.0010004,98.3470,348.1124,285.2083,182.2080,0,U,27939,999,21491,.12834E-3,.779E-5,0
CUBESAT XI-V,2005-043F,2026-06-11T23:12:17.734752,14.72617350,.00133393,98.2978,318.4792,218.0052,142.0215,0,U,28895,999,10098,.19211062E-3,.1171E-4,0
CUTE-1.7+APD II (CO-65),2008-021C,2026-06-12T20:57:53.953632,15.09415432,.0010268,97.8271,145.2022,52.3473,307.8685,0,U,32785,999,98454,.32974E-3,.5212E-4,0
SEEDS II (CO-66),2008-021J,2026-06-12T05:44:11.493024,15.32585967,.00018158,97.7515,160.9008,20.0677,340.0635,0,U,32791,999,98653,.61967164E-3,.19444E-3,0
YUBILEINY (RS30),2008-025A,2026-06-12T19:59:42.125280,12.43178889,.0019021,82.5048,358.1498,323.7025,36.2763,0,U,32953,999,81915,-.84848E-4,-.2E-7,0
KKS-1 (KISEKI),2009-002H,2026-06-12T19:17:29.742144,14.83113720,.0006758,98.1192,86.1766,312.7391,47.3253,0,U,33499,999,93554,.16102E-3,.1256E-4,0
SWISSCUBE,2009-051B,2026-06-11T05:11:30.524928,14.62470076,.0005629,98.4041,70.0006,224.4191,135.6559,0,U,35932,999,88828,.16844E-3,.804E-5,0
BEESAT-1,2009-051C,2026-06-12T05:59:13.182432,14.61713145,.00039964,98.3970,70.6975,236.3504,123.7316,0,U,35933,999,88846,.16659664E-3,.781E-5,0
ITUPSAT1,2009-051E,2026-06-11T04:59:59.440704,14.60431670,.0006132,98.4055,68.8386,256.4621,103.5895,0,U,35935,999,88786,.13683E-3,.614E-5,0
XIWANG-1 (HOPE-1),2009-072B,2026-06-12T20:03:44.530848,13.16440813,.0006815,100.4020,117.7371,242.1374,117.9049,0,U,36122,999,79243,.99957E-3,.337E-5,0
O/OREOS (USA 219),2010-062C,2026-06-12T20:14:04.149312,14.93727150,.0012432,71.9711,90.1789,72.5721,287.6808,0,U,37224,999,11599,.22291E-3,.2302E-4,0
JUGNU,2011-058B,2026-06-12T03:54:33.555168,14.13775454,.0018583,19.9621,338.9523,20.9727,136.2305,0,U,37839,999,75831,.72628816E-4,.406E-5,0
SRMSAT,2011-058D,2026-06-11T12:22:46.149888,14.11574372,.0011909,19.9715,93.7945,141.4141,27.1536,0,U,37841,999,75701,.48954E-4,.355E-5,0
STRAND-1,2013-009E,2026-06-12T06:03:01.536768,14.37160588,.00075292,98.3921,343.6080,242.0462,117.9963,0,U,39090,999,69635,.10584582E-3,.272E-5,0
ZACUBE-1 (TSHEPISOSAT),2013-066B,2026-06-12T20:59:32.937792,15.01164573,.0040346,97.8083,126.1882,262.7759,96.8878,0,U,39417,999,68008,.28323E-3,.3629E-4,0
GOMX-1,2013-066Q,2026-06-12T19:52:16.282272,14.69445497,.0130186,97.6491,4.5668,91.3655,270.2469,0,U,39430,999,66927,.33202E-3,.2189E-4,0
